{
  "type": "FeatureCollection",
  "features": [
    {
      "type": "Feature",
      "properties": {
        "norad_id": 32275,
        "name": "COSMOS 2433 (720)",
        "group": "glo-ops",
        "lat": -64.63014321157003,
        "lon": -110.59788208254076,
        "alt_km": 19124.075536851105,
        "timestamp": "2025-12-24T05:51:19.869606+00:00",
        "meta_object_name": "COSMOS 2433 (720)",
        "meta_object_id": "2007-052A",
        "meta_epoch": "2025-12-22T00:07:36.568704",
        "meta_mean_motion": 2.13104226,
        "meta_eccentricity": 0.00051704,
        "meta_inclination": 65.6781,
        "meta_ra_of_asc_node": 321.8942,
        "meta_arg_of_pericenter": 255.846,
        "meta_mean_anomaly": 104.0915,
        "meta_ephemeris_type": 0,
        "meta_classification_type": "U",
        "meta_norad_cat_id": 32275,
        "meta_element_set_no": 999,
        "meta_rev_at_epoch": 14128,
        "meta_bstar": 0,
        "meta_mean_motion_dot": -4.2e-07,
        "meta_mean_motion_ddot": 0,
        "tle_line1": "1 32275U 07052A   25356.00528436 -.00000042  00000+0  00000+0 0  9997",
        "tle_line2": "2 32275  65.6781 321.8942 0005170 255.8460 104.0915  2.13104226141283"
      },
      "geometry": {
        "type": "Point",
        "coordinates": [
          -110.59788208254076,
          -64.63014321157003
        ]
      }
    },
    {
      "type": "Feature",
      "properties": {
        "norad_id": 32276,
        "name": "COSMOS 2432 (719)",
        "group": "glo-ops",
        "lat": -37.36131858732422,
        "lon": 162.10009569599188,
        "alt_km": 19136.01325759864,
        "timestamp": "2025-12-24T05:51:19.869629+00:00",
        "meta_object_name": "COSMOS 2432 (719)",
        "meta_object_id": "2007-052B",
        "meta_epoch": "2025-12-23T22:53:18.377088",
        "meta_mean_motion": 2.13103388,
        "meta_eccentricity": 0.00113706,
        "meta_inclination": 65.6932,
        "meta_ra_of_asc_node": 321.9536,
        "meta_arg_of_pericenter": 314.6761,
        "meta_mean_anomaly": 44.445,
        "meta_ephemeris_type": 0,
        "meta_classification_type": "U",
        "meta_norad_cat_id": 32276,
        "meta_element_set_no": 999,
        "meta_rev_at_epoch": 14134,
        "meta_bstar": 0,
        "meta_mean_motion_dot": -3.4e-07,
        "meta_mean_motion_ddot": 0,
        "tle_line1": "1 32276U 07052B   25357.95368492 -.00000034  00000+0  00000+0 0  9998",
        "tle_line2": "2 32276  65.6932 321.9536 0011370 314.6761  44.4450  2.13103388141345"
      },
      "geometry": {
        "type": "Point",
        "coordinates": [
          162.10009569599188,
          -37.36131858732422
        ]
      }
    },
    {
      "type": "Feature",
      "properties": {
        "norad_id": 32393,
        "name": "COSMOS 2434 (721)",
        "group": "glo-ops",
        "lat": 10.763868616440844,
        "lon": 12.567505815760336,
        "alt_km": 19130.254218162216,
        "timestamp": "2025-12-24T05:51:19.869644+00:00",
        "meta_object_name": "COSMOS 2434 (721)",
        "meta_object_id": "2007-065A",
        "meta_epoch": "2025-12-23T13:22:34.639104",
        "meta_mean_motion": 2.13101491,
        "meta_eccentricity": 0.0004831,
        "meta_inclination": 64.3158,
        "meta_ra_of_asc_node": 197.8381,
        "meta_arg_of_pericenter": 72.36,
        "meta_mean_anomaly": 288.8576,
        "meta_ephemeris_type": 0,
        "meta_classification_type": "U",
        "meta_norad_cat_id": 32393,
        "meta_element_set_no": 999,
        "meta_rev_at_epoch": 14003,
        "meta_bstar": 0,
        "meta_mean_motion_dot": 9.6e-07,
        "meta_mean_motion_ddot": 0,
        "tle_line1": "1 32393U 07065A   25357.55734536  .00000096  00000+0  00000+0 0  9991",
        "tle_line2": "2 32393  64.3158 197.8381 0004831  72.3600 288.8576  2.13101491140034"
      },
      "geometry": {
        "type": "Point",
        "coordinates": [
          12.567505815760336,
          10.763868616440844
        ]
      }
    },
    {
      "type": "Feature",
      "properties": {
        "norad_id": 32395,
        "name": "COSMOS 2436 (723)",
        "group": "glo-ops",
        "lat": -50.73259897430268,
        "lon": 161.82353755730787,
        "alt_km": 19119.83920083508,
        "timestamp": "2025-12-24T05:51:19.869657+00:00",
        "meta_object_name": "COSMOS 2436 (723)",
        "meta_object_id": "2007-065C",
        "meta_epoch": "2025-12-23T14:51:15.098400",
        "meta_mean_motion": 2.13100222,
        "meta_eccentricity": 0.00178112,
        "meta_inclination": 64.3245,
        "meta_ra_of_asc_node": 197.9064,
        "meta_arg_of_pericenter": 10.214,
        "meta_mean_anomaly": 171.2752,
        "meta_ephemeris_type": 0,
        "meta_classification_type": "U",
        "meta_norad_cat_id": 32395,
        "meta_element_set_no": 999,
        "meta_rev_at_epoch": 13998,
        "meta_bstar": 0,
        "meta_mean_motion_dot": 9.6e-07,
        "meta_mean_motion_ddot": 0,
        "tle_line1": "1 32395U 07065C   25357.61892475  .00000096  00000+0  00000+0 0  9997",
        "tle_line2": "2 32395  64.3245 197.9064 0017811  10.2140 171.2752  2.13100222139988"
      },
      "geometry": {
        "type": "Point",
        "coordinates": [
          161.82353755730787,
          -50.73259897430268
        ]
      }
    },
    {
      "type": "Feature",
      "properties": {
        "norad_id": 36111,
        "name": "COSMOS 2456 (730)",
        "group": "glo-ops",
        "lat": -31.21376029749049,
        "lon": 60.48802424862637,
        "alt_km": 19125.964467862177,
        "timestamp": "2025-12-24T05:51:19.869670+00:00",
        "meta_object_name": "COSMOS 2456 (730)",
        "meta_object_id": "2009-070A",
        "meta_epoch": "2025-12-23T08:10:18.888096",
        "meta_mean_motion": 2.13103774,
        "meta_eccentricity": 0.00036109,
        "meta_inclination": 64.9055,
        "meta_ra_of_asc_node": 76.9756,
        "meta_arg_of_pericenter": 295.3784,
        "meta_mean_anomaly": 56.6202,
        "meta_ephemeris_type": 0,
        "meta_classification_type": "U",
        "meta_norad_cat_id": 36111,
        "meta_element_set_no": 999,
        "meta_rev_at_epoch": 12467,
        "meta_bstar": 0,
        "meta_mean_motion_dot": -1e-08,
        "meta_mean_motion_ddot": 0,
        "tle_line1": "1 36111U 09070A   25357.34049639 -.00000001  00000+0  00000+0 0  9998",
        "tle_line2": "2 36111  64.9055  76.9756 0003610 295.3784  56.6202  2.13103774124670"
      },
      "geometry": {
        "type": "Point",
        "coordinates": [
          60.48802424862637,
          -31.21376029749049
        ]
      }
    },
    {
      "type": "Feature",
      "properties": {
        "norad_id": 36112,
        "name": "COSMOS 2457 (733)",
        "group": "glo-ops",
        "lat": 64.60023291649463,
        "lon": 176.3873470174866,
        "alt_km": 19118.879781634438,
        "timestamp": "2025-12-24T05:51:19.869682+00:00",
        "meta_object_name": "COSMOS 2457 (733)",
        "meta_object_id": "2009-070B",
        "meta_epoch": "2025-12-23T15:49:23.328192",
        "meta_mean_motion": 2.13101141,
        "meta_eccentricity": 0.00045057,
        "meta_inclination": 64.8913,
        "meta_ra_of_asc_node": 76.812,
        "meta_arg_of_pericenter": 162.7292,
        "meta_mean_anomaly": 202.8862,
        "meta_ephemeris_type": 0,
        "meta_classification_type": "U",
        "meta_norad_cat_id": 36112,
        "meta_element_set_no": 999,
        "meta_rev_at_epoch": 12469,
        "meta_bstar": 0,
        "meta_mean_motion_dot": -1e-08,
        "meta_mean_motion_ddot": 0,
        "tle_line1": "1 36112U 09070B   25357.65929778 -.00000001  00000+0  00000+0 0  9994",
        "tle_line2": "2 36112  64.8913  76.8120 0004505 162.7292 202.8862  2.13101141124697"
      },
      "geometry": {
        "type": "Point",
        "coordinates": [
          176.3873470174866,
          64.60023291649463
        ]
      }
    },
    {
      "type": "Feature",
      "properties": {
        "norad_id": 36402,
        "name": "COSMOS 2460 (732)",
        "group": "glo-ops",
        "lat": 65.24089649514161,
        "lon": 59.61636499663389,
        "alt_km": 19128.90432488778,
        "timestamp": "2025-12-24T05:51:19.869694+00:00",
        "meta_object_name": "COSMOS 2460 (732)",
        "meta_object_id": "2010-007C",
        "meta_epoch": "2025-12-22T12:30:28.820160",
        "meta_mean_motion": 2.1310637,
        "meta_eccentricity": 0.00025026,
        "meta_inclination": 65.5243,
        "meta_ra_of_asc_node": 320.4432,
        "meta_arg_of_pericenter": 283.7046,
        "meta_mean_anomaly": 288.4145,
        "meta_ephemeris_type": 0,
        "meta_classification_type": "U",
        "meta_norad_cat_id": 36402,
        "meta_element_set_no": 999,
        "meta_rev_at_epoch": 12296,
        "meta_bstar": 0,
        "meta_mean_motion_dot": -3.9e-07,
        "meta_mean_motion_ddot": 0,
        "tle_line1": "1 36402U 10007C   25356.52116690 -.00000039  00000+0  00000+0 0  9995",
        "tle_line2": "2 36402  65.5243 320.4432 0002502 283.7046 288.4145  2.13106370122964"
      },
      "geometry": {
        "type": "Point",
        "coordinates": [
          59.61636499663389,
          65.24089649514161
        ]
      }
    }
  ]
}